H1 CPF 01  gfz 2022 02 27 13  5582 terrasarx 
H2 0702601  6201 31698    2022 02 27 12 59 42 2022 03 04 00 00 42   120 1 1  0 0 0
H9
10 0 59638  43182.000000  0     874754.450   1007135.404   6747538.160
10 0 59638  43302.000000  0     891702.649     89706.328   6819340.563
10 0 59638  43422.000000  0     877027.467   -829308.261   6771337.759
10 0 59638  43542.000000  0     831101.940  -1733324.724   6604366.726
10 0 59638  43662.000000  0     755130.522  -2606029.765   6321342.408
10 0 59638  43782.000000  0     651121.227  -3431676.273   5927210.365
10 0 59638  43902.000000  0     521838.524  -4195369.227   5428862.909
10 0 59638  44022.000000  0     370739.506  -4883336.324   4835024.443
10 0 59638  44142.000000  0     201893.616  -5483182.399   4156106.398
10 0 59638  44262.000000  0      19886.129  -5984123.183   3404029.654
10 0 59638  44382.000000  0    -170292.361  -6377189.752   2592016.879
10 0 59638  44502.000000  0    -363367.321  -6655398.953   1734358.388
10 0 59638  44622.000000  0    -553909.917  -6813885.827    846157.952
10 0 59638  44742.000000  0    -736471.969  -6849997.127    -56940.395
10 0 59638  44862.000000  0    -905722.581  -6763337.596   -959038.011
10 0 59638  44982.000000  0   -1056581.942  -6555769.779  -1844270.640
10 0 59638  45102.000000  0   -1184349.592  -6231369.298  -2697094.599
10 0 59638  45222.000000  0   -1284824.432  -5796337.080  -3502565.551
10 0 59638  45342.000000  0   -1354413.166  -5258869.718  -4246603.739
10 0 59638  45462.000000  0   -1390224.199  -4628991.978  -4916238.934
10 0 59638  45582.000000  0   -1390145.312  -3918358.084  -5499830.849
10 0 59638  45702.000000  0   -1352903.634  -3140026.748  -5987263.243
10 0 59638  45822.000000  0   -1278106.788  -2308214.452  -6370109.399
10 0 59638  45942.000000  0   -1166264.778  -1438031.949  -6641766.321
10 0 59638  46062.000000  0   -1018792.848   -545210.415  -6797557.350
10 0 59638  46182.000000  0    -837995.375    354179.195  -6834804.002
10 0 59638  46302.000000  0    -627029.893   1244008.861  -6752866.052
10 0 59638  46422.000000  0    -389853.139   2108375.016  -6553151.185
10 0 59638  46542.000000  0    -131150.035   2931875.481  -6239094.053
10 0 59638  46662.000000  0     143755.177   3699879.994  -5816105.229
10 0 59638  46782.000000  0     429004.191   4398789.064  -5291486.859
10 0 59638  46902.000000  0     718323.360   5016276.213  -4674317.874
10 0 59638  47022.000000  0    1005155.033   5541512.028  -3975308.444
10 0 59638  47142.000000  0    1282799.229   5965363.402  -3206623.325
10 0 59638  47262.000000  0    1544562.334   6280563.554  -2381677.408
10 0 59638  47382.000000  0    1783909.890   6481849.376  -1514905.274
10 0 59638  47502.000000  0    1994620.022   6566061.314   -621507.856
10 0 59638  47622.000000  0    2170933.237   6532201.583    282818.828
10 0 59638  47742.000000  0    2307694.259   6381449.125   1182166.113
10 0 59638  47862.000000  0    2400482.855   6117131.185   2060700.262
10 0 59638  47982.000000  0    2445729.948   5744651.901   2902949.346
10 0 59638  48102.000000  0    2440816.587   5271380.038   3694083.305
10 0 59638  48222.000000  0    2384152.646   4706498.198   4420181.818
10 0 59638  48342.000000  0    2275232.745   4060816.103   5068484.742
10 0 59638  48462.000000  0    2114667.519   3346551.894   5627615.077
10 0 59638  48582.000000  0    1904192.918   2577094.010   6087773.896
10 0 59638  48702.000000  0    1646656.018   1766744.630   6440908.136
10 0 59638  48822.000000  0    1345976.733    930448.367   6680846.029
10 0 59638  48942.000000  0    1007087.226     83514.114   6803397.586
10 0 59638  49062.000000  0     635850.703   -758663.803   6806423.247
10 0 59638  49182.000000  0     238959.754  -1580885.402   6689870.508
10 0 59638  49302.000000  0    -176184.499  -2368419.357   6455774.568
10 0 59638  49422.000000  0    -601610.261  -3107267.544   6108224.557
10 0 59638  49542.000000  0   -1028926.172  -3784414.683   5653294.233
10 0 59638  49662.000000  0   -1449483.690  -4388058.778   5098941.934
10 0 59638  49782.000000  0   -1854550.974  -4907822.337   4454880.223
10 0 59638  49902.000000  0   -2235494.244  -5334940.038   3732411.966
10 0 59638  50022.000000  0   -2583961.743  -5662416.105   2944233.742
10 0 59638  50142.000000  0   -2892065.340  -5885145.917   2104211.788
10 0 59638  50262.000000  0   -3152556.056  -6000001.391   1227135.427
10 0 59638  50382.000000  0   -3358989.446  -6005877.681    328451.254
10 0 59638  50502.000000  0   -3505876.417  -5903699.267   -576016.365
10 0 59638  50622.000000  0   -3588815.682  -5696385.150  -1470352.896
10 0 59638  50742.000000  0   -3604604.233  -5388773.142  -2338842.706
10 0 59638  50862.000000  0   -3551323.120  -4987505.644  -3166252.651
10 0 59638  50982.000000  0   -3428396.022  -4500880.237  -3938103.781
10 0 59638  51102.000000  0   -3236619.660  -3938670.327  -4640924.784
10 0 59638  51222.000000  0   -2978166.656  -3311921.365  -5262483.430
10 0 59638  51342.000000  0   -2656561.303  -2632727.028  -5791992.443
10 0 59638  51462.000000  0   -2276629.251  -1913991.288  -6220287.168
10 0 59638  51582.000000  0   -1844421.678  -1169181.021  -6539973.899
10 0 59638  51702.000000  0   -1367116.057   -412073.829  -6745545.694
10 0 59638  51822.000000  0    -852896.960    343493.275  -6833465.985
10 0 59638  51942.000000  0    -310817.868   1083870.379  -6802222.637
10 0 59638  52062.000000  0     249354.704   1795834.926  -6652350.874
10 0 59638  52182.000000  0     817311.484   2466821.570  -6386426.409
10 0 59638  52302.000000  0    1382386.593   3085140.738  -6009027.489
10 0 59638  52422.000000  0    1933753.534   3640181.076  -5526663.544
10 0 59638  52542.000000  0    2460629.172   4122592.331  -4947673.369
10 0 59638  52662.000000  0    2952482.773   4524447.085  -4282092.747
10 0 59638  52782.000000  0    3399246.220   4839378.342  -3541490.870
10 0 59638  52902.000000  0    3791521.327   5062688.629  -2738777.721
10 0 59638  53022.000000  0    4120780.286   5191427.839  -1887983.642
10 0 59638  53142.000000  0    4379552.380   5224437.005  -1004015.563
10 0 59638  53262.000000  0    4561593.820   5162358.173   -102393.316
10 0 59638  53382.000000  0    4662035.247   5007606.192    801029.182
10 0 59638  53502.000000  0    4677501.353   4764304.522   1690349.725
10 0 59638  53622.000000  0    4606202.617   4438188.797   2549905.101
10 0 59638  53742.000000  0    4447995.582   4036476.732   3364557.181
10 0 59638  53862.000000  0    4204406.910   3567708.071   4119967.029
10 0 59638  53982.000000  0    3878623.917   3041559.955   4802850.729
10 0 59638  54102.000000  0    3475453.282   2468643.838   5401215.234
10 0 59638  54222.000000  0    3001243.802   1860285.906   5904567.943
10 0 59638  54342.000000  0    2463781.261   1228299.815   6304095.040
10 0 59638  54462.000000  0    1872156.325    584754.116   6592809.667
10 0 59638  54582.000000  0    1236607.449    -58258.200   6765667.409
10 0 59638  54702.000000  0     568341.696   -688845.732   6819650.705
10 0 59638  54822.000000  0    -120663.834  -1295539.081   6753818.436
10 0 59638  54942.000000  0    -817876.819  -1867499.043   6569320.703
10 0 59638  55062.000000  0   -1510437.204  -2394710.327   6269378.750
10 0 59638  55182.000000  0   -2185392.087  -2868156.511   5859231.297
10 0 59638  55302.000000  0   -2829936.748  -3279975.994   5346050.806
10 0 59638  55422.000000  0   -3431661.097  -3623597.118   4738825.628
10 0 59638  55542.000000  0   -3978793.445  -3893846.776   4048206.571
10 0 59638  55662.000000  0   -4460434.817  -4087031.370   3286323.255
10 0 59638  55782.000000  0   -4866780.591  -4200988.877   2466573.236
10 0 59638  55902.000000  0   -5189325.681  -4235111.166   1603385.675
10 0 59638  56022.000000  0   -5421046.395  -4190333.862    711962.347
10 0 59638  56142.000000  0   -5556554.386  -4069094.206   -191996.853
10 0 59638  56262.000000  0   -5592218.870  -3875258.315  -1092578.999
10 0 59638  56382.000000  0   -5526253.410  -3614019.047  -1973948.325
10 0 59638  56502.000000  0   -5358763.587  -3291766.326  -2820633.147
10 0 59638  56622.000000  0   -5091756.613  -2915935.716  -3617802.328
10 0 59638  56742.000000  0   -4729113.453  -2494838.582  -4351526.724
10 0 59638  56862.000000  0   -4276524.619  -2037478.596  -5009020.875
10 0 59638  56982.000000  0   -3741391.348  -1553359.274  -5578860.550
10 0 59638  57102.000000  0   -3132695.557  -1052286.492  -6051172.809
10 0 59638  57222.000000  0   -2460842.084   -544170.853  -6417796.199
10 0 59638  57342.000000  0   -1737476.193    -38834.182  -6672410.389
10 0 59638  57462.000000  0    -975280.134    454176.097  -6810633.158
10 0 59638  57582.000000  0    -187754.237    925762.088  -6830087.154
10 0 59638  57702.000000  0     611016.587   1367439.063  -6730435.949
10 0 59638  57822.000000  0    1406607.646   1771483.436  -6513391.054
10 0 59638  57942.000000  0    2184510.046   2131066.143  -6182686.704
10 0 59638  58062.000000  0    2930390.626   2440367.193  -5744022.353
10 0 59638  58182.000000  0    3630352.720   2694670.018  -5204973.125
10 0 59638  58302.000000  0    4271194.197   2890434.755  -4574871.279
10 0 59638  58422.000000  0    4840660.403   3025349.486  -3864655.918
10 0 59638  58542.000000  0    5327684.411   3098356.709  -3086691.575
10 0 59638  58662.000000  0    5722609.216   3109655.375  -2254560.230
10 0 59638  58782.000000  0    6017389.268   3060678.215  -1382827.272
10 0 59638  58902.000000  0    6205762.529   2954042.027   -486785.131
10 0 59638  59022.000000  0    6283390.022   2793473.846    417819.305
10 0 59638  59142.000000  0    6247957.442   2583712.188   1315068.678
10 0 59638  59262.000000  0    6099237.109   2330389.106   2189162.459
10 0 59638  59382.000000  0    5839108.685   2039894.369   3024704.666
10 0 59638  59502.000000  0    5471535.871   1719224.012   3806983.423
10 0 59638  59622.000000  0    5002500.854   1375818.650   4522236.188
99
